SHIJIAN-6 02B (SJ-6 02B)
1 29506U 06046B   26064.29816133  .00003379  00000+0  26913-3 0  9994
2 29506  97.7051  94.0683 0014165  57.3609 302.8980 15.00974459 55150
FGRST (GLAST)           
1 33053U 08029A   26064.09765024  .00004831  00000+0  18404-3 0  9999
2 33053  25.5812 206.8968 0008348 173.9116 186.1524 15.23287211979946
SDO                     
1 36395U 10005A   26064.07405898 -.00000065  00000+0  00000+0 0  9991
2 36395  34.4320  87.9180 0000290  60.8021 298.8471  1.00275503 59012
CRYOSAT 2               
1 36508U 10013A   26064.28794011  .00000304  00000+0  74708-4 0  9993
2 36508  92.0224 252.1279 0002115  87.2198 272.9252 14.51906384843000
X-SAT                   
1 37389U 11015C   26064.25004067  .00000287  00000+0  13951-3 0  9998
2 37389  98.3419  46.2785 0012935 290.8673  69.1122 14.25170855772873
GCOM-W1 (SHIZUKU)       
1 38337U 12025A   26063.78654314  .00000915  00000+0  21309-3 0  9991
2 38337  98.2051   5.9210 0001499  75.5547 313.9771 14.57089916733839
NUSTAR                  
1 38358U 12031A   26064.33335648  .00011635  00000+0  68577-3 0  9998
2 38358   6.0258  92.5017 0007772 358.2666 205.0709 15.07650289  1303
NEOSSAT                 
1 39089U 13009D   26064.23586950  .00000334  00000+0  13030-3 0  9997
2 39089  98.4137 246.7486 0010769 190.7819 169.3138 14.35782973681823
BRITE-AUSTRIA           
1 39091U 13009F   26064.07705221  .00000314  00000+0  12152-3 0  9998
2 39091  98.3951 246.1000 0010079 184.8031 175.3061 14.36492856682102
IRIS                    
1 39197U 13033A   26064.11471676  .00001887  00000+0  22339-3 0  9995
2 39197  97.9397 263.6825 0023453 301.1470  58.7445 14.85628326684927
HISAKI (SPRINT-A)       
1 39253U 13049A   26064.28320149  .00000121  00000+0  73367-4 0  9999
2 39253  29.7221  28.2582 0136716 254.3890 104.1555 13.55530196617316
CASSIOPE                
1 39265U 13055A   26064.33680619  .00039525 -57893-6  47608-3 0  9994
2 39265  80.9192 192.1737 0316968  50.7244 312.1644 15.18383058651871
STSAT-3                 
1 39422U 13066G   26064.28249264  .00007067  00000+0  54218-3 0  9993
2 39422  97.6058  35.9904 0011940  29.7524 330.4377 15.02044994668602
SWARM B                 
1 39451U 13067A   26064.28078384  .00006124  00000+0  22441-3 0  9995
2 39451  87.7491  13.8239 0003691  89.5701 270.5971 15.27806770667378
SWARM A                 
1 39452U 13067B   26064.32894176  .00012952  00000+0  24177-3 0  9990
2 39452  87.3286  94.7740 0003046  93.6982 266.4626 15.48633656690161
SWARM C                 
1 39453U 13067C   26064.32883326  .00012730  00000+0  23762-3 0  9999
2 39453  87.3283  93.3557 0003063  93.5844 266.5767 15.48632736690126
BRITE-CA1 (TORONTO)     
1 40020U 14033L   26063.32853596  .00001935  00000+0  29920-3 0  9997
2 40020  97.9558 194.3075 0077710 252.3100 106.9613 14.72445502626784
