[{"OBJECT_NAME":"SHIJIAN-6 02B (SJ-6 02B)","OBJECT_ID":"2006-046B","EPOCH":"2026-03-05T07:09:21.138912","MEAN_MOTION":15.00974459,"ECCENTRICITY":0.00141654,"INCLINATION":97.7051,"RA_OF_ASC_NODE":94.0683,"ARG_OF_PERICENTER":57.3609,"MEAN_ANOMALY":302.898,"EPHEMERIS_TYPE":0,"CLASSIFICATION_TYPE":"U","NORAD_CAT_ID":29506,"ELEMENT_SET_NO":999,"REV_AT_EPOCH":5515,"BSTAR":0.00026913105,"MEAN_MOTION_DOT":3.379e-5,"MEAN_MOTION_DDOT":0},{"OBJECT_NAME":"FGRST (GLAST)","OBJECT_ID":"2008-029A","EPOCH":"2026-03-05T02:20:36.980736","MEAN_MOTION":15.23287211,"ECCENTRICITY":0.00083485,"INCLINATION":25.5812,"RA_OF_ASC_NODE":206.8968,"ARG_OF_PERICENTER":173.9116,"MEAN_ANOMALY":186.1524,"EPHEMERIS_TYPE":0,"CLASSIFICATION_TYPE":"U","NORAD_CAT_ID":33053,"ELEMENT_SET_NO":999,"REV_AT_EPOCH":97994,"BSTAR":0.00018404111,"MEAN_MOTION_DOT":4.831e-5,"MEAN_MOTION_DDOT":0},{"OBJECT_NAME":"SDO","OBJECT_ID":"2010-005A","EPOCH":"2026-03-05T01:46:38.695872","MEAN_MOTION":1.00275503,"ECCENTRICITY":2.902e-5,"INCLINATION":34.432,"RA_OF_ASC_NODE":87.918,"ARG_OF_PERICENTER":60.8021,"MEAN_ANOMALY":298.8471,"EPHEMERIS_TYPE":0,"CLASSIFICATION_TYPE":"U","NORAD_CAT_ID":36395,"ELEMENT_SET_NO":999,"REV_AT_EPOCH":5901,"BSTAR":0,"MEAN_MOTION_DOT":-6.5e-7,"MEAN_MOTION_DDOT":0},{"OBJECT_NAME":"CRYOSAT 2","OBJECT_ID":"2010-013A","EPOCH":"2026-03-05T06:54:38.025504","MEAN_MOTION":14.51906384,"ECCENTRICITY":0.00021158,"INCLINATION":92.0224,"RA_OF_ASC_NODE":252.1279,"ARG_OF_PERICENTER":87.2198,"MEAN_ANOMALY":272.9252,"EPHEMERIS_TYPE":0,"CLASSIFICATION_TYPE":"U","NORAD_CAT_ID":36508,"ELEMENT_SET_NO":999,"REV_AT_EPOCH":84300,"BSTAR":7.470825e-5,"MEAN_MOTION_DOT":3.04e-6,"MEAN_MOTION_DDOT":0},{"OBJECT_NAME":"X-SAT","OBJECT_ID":"2011-015C","EPOCH":"2026-03-05T06:00:03.513888","MEAN_MOTION":14.25170855,"ECCENTRICITY":0.00129351,"INCLINATION":98.3419,"RA_OF_ASC_NODE":46.2785,"ARG_OF_PERICENTER":290.8673,"MEAN_ANOMALY":69.1122,"EPHEMERIS_TYPE":0,"CLASSIFICATION_TYPE":"U","NORAD_CAT_ID":37389,"ELEMENT_SET_NO":999,"REV_AT_EPOCH":77287,"BSTAR":0.00013950519,"MEAN_MOTION_DOT":2.87e-6,"MEAN_MOTION_DDOT":0},{"OBJECT_NAME":"GCOM-W1 (SHIZUKU)","OBJECT_ID":"2012-025A","EPOCH":"2026-03-04T18:52:37.327296","MEAN_MOTION":14.57089916,"ECCENTRICITY":0.00014998,"INCLINATION":98.2051,"RA_OF_ASC_NODE":5.921,"ARG_OF_PERICENTER":75.5547,"MEAN_ANOMALY":313.9771,"EPHEMERIS_TYPE":0,"CLASSIFICATION_TYPE":"U","NORAD_CAT_ID":38337,"ELEMENT_SET_NO":999,"REV_AT_EPOCH":73383,"BSTAR":0.00021309498,"MEAN_MOTION_DOT":9.15e-6,"MEAN_MOTION_DDOT":0},{"OBJECT_NAME":"NUSTAR","OBJECT_ID":"2012-031A","EPOCH":"2026-03-05T08:00:01.999872","MEAN_MOTION":15.07650289,"ECCENTRICITY":0.00077725,"INCLINATION":6.0258,"RA_OF_ASC_NODE":92.5017,"ARG_OF_PERICENTER":358.2666,"MEAN_ANOMALY":205.0709,"EPHEMERIS_TYPE":0,"CLASSIFICATION_TYPE":"U","NORAD_CAT_ID":38358,"ELEMENT_SET_NO":999,"REV_AT_EPOCH":130,"BSTAR":0.00068577075,"MEAN_MOTION_DOT":0.00011635,"MEAN_MOTION_DDOT":0},{"OBJECT_NAME":"NEOSSAT","OBJECT_ID":"2013-009D","EPOCH":"2026-03-05T05:39:39.124800","MEAN_MOTION":14.35782973,"ECCENTRICITY":0.00107699,"INCLINATION":98.4137,"RA_OF_ASC_NODE":246.7486,"ARG_OF_PERICENTER":190.7819,"MEAN_ANOMALY":169.3138,"EPHEMERIS_TYPE":0,"CLASSIFICATION_TYPE":"U","NORAD_CAT_ID":39089,"ELEMENT_SET_NO":999,"REV_AT_EPOCH":68182,"BSTAR":0.00013030476,"MEAN_MOTION_DOT":3.34e-6,"MEAN_MOTION_DDOT":0},{"OBJECT_NAME":"BRITE-AUSTRIA","OBJECT_ID":"2013-009F","EPOCH":"2026-03-05T01:50:57.310944","MEAN_MOTION":14.36492856,"ECCENTRICITY":0.00100796,"INCLINATION":98.3951,"RA_OF_ASC_NODE":246.1,"ARG_OF_PERICENTER":184.8031,"MEAN_ANOMALY":175.3061,"EPHEMERIS_TYPE":0,"CLASSIFICATION_TYPE":"U","NORAD_CAT_ID":39091,"ELEMENT_SET_NO":999,"REV_AT_EPOCH":68210,"BSTAR":0.00012151519,"MEAN_MOTION_DOT":3.14e-6,"MEAN_MOTION_DDOT":0},{"OBJECT_NAME":"IRIS","OBJECT_ID":"2013-033A","EPOCH":"2026-03-05T02:45:11.528064","MEAN_MOTION":14.85628326,"ECCENTRICITY":0.00234532,"INCLINATION":97.9397,"RA_OF_ASC_NODE":263.6825,"ARG_OF_PERICENTER":301.147,"MEAN_ANOMALY":58.7445,"EPHEMERIS_TYPE":0,"CLASSIFICATION_TYPE":"U","NORAD_CAT_ID":39197,"ELEMENT_SET_NO":999,"REV_AT_EPOCH":68492,"BSTAR":0.00022339202,"MEAN_MOTION_DOT":1.887e-5,"MEAN_MOTION_DDOT":0},{"OBJECT_NAME":"HISAKI (SPRINT-A)","OBJECT_ID":"2013-049A","EPOCH":"2026-03-05T06:47:48.608736","MEAN_MOTION":13.55530196,"ECCENTRICITY":0.01367167,"INCLINATION":29.7221,"RA_OF_ASC_NODE":28.2582,"ARG_OF_PERICENTER":254.389,"MEAN_ANOMALY":104.1555,"EPHEMERIS_TYPE":0,"CLASSIFICATION_TYPE":"U","NORAD_CAT_ID":39253,"ELEMENT_SET_NO":999,"REV_AT_EPOCH":61731,"BSTAR":7.3366527e-5,"MEAN_MOTION_DOT":1.21e-6,"MEAN_MOTION_DDOT":0},{"OBJECT_NAME":"CASSIOPE","OBJECT_ID":"2013-055A","EPOCH":"2026-03-05T08:05:00.054816","MEAN_MOTION":15.18383058,"ECCENTRICITY":0.03169683,"INCLINATION":80.9192,"RA_OF_ASC_NODE":192.1737,"ARG_OF_PERICENTER":50.7244,"MEAN_ANOMALY":312.1644,"EPHEMERIS_TYPE":0,"CLASSIFICATION_TYPE":"U","NORAD_CAT_ID":39265,"ELEMENT_SET_NO":999,"REV_AT_EPOCH":65187,"BSTAR":0.00047607978,"MEAN_MOTION_DOT":0.00039525,"MEAN_MOTION_DDOT":-5.78934e-7},{"OBJECT_NAME":"STSAT-3","OBJECT_ID":"2013-066G","EPOCH":"2026-03-05T06:46:47.364096","MEAN_MOTION":15.02044994,"ECCENTRICITY":0.00119404,"INCLINATION":97.6058,"RA_OF_ASC_NODE":35.9904,"ARG_OF_PERICENTER":29.7524,"MEAN_ANOMALY":330.4377,"EPHEMERIS_TYPE":0,"CLASSIFICATION_TYPE":"U","NORAD_CAT_ID":39422,"ELEMENT_SET_NO":999,"REV_AT_EPOCH":66860,"BSTAR":0.00054217658,"MEAN_MOTION_DOT":7.067e-5,"MEAN_MOTION_DDOT":0},{"OBJECT_NAME":"SWARM B","OBJECT_ID":"2013-067A","EPOCH":"2026-03-05T06:44:19.723776","MEAN_MOTION":15.2780677,"ECCENTRICITY":0.0003691,"INCLINATION":87.7491,"RA_OF_ASC_NODE":13.8239,"ARG_OF_PERICENTER":89.5701,"MEAN_ANOMALY":270.5971,"EPHEMERIS_TYPE":0,"CLASSIFICATION_TYPE":"U","NORAD_CAT_ID":39451,"ELEMENT_SET_NO":999,"REV_AT_EPOCH":66737,"BSTAR":0.00022441292,"MEAN_MOTION_DOT":6.124e-5,"MEAN_MOTION_DDOT":0},{"OBJECT_NAME":"SWARM A","OBJECT_ID":"2013-067B","EPOCH":"2026-03-05T07:53:40.568064","MEAN_MOTION":15.48633656,"ECCENTRICITY":0.00030462,"INCLINATION":87.3286,"RA_OF_ASC_NODE":94.774,"ARG_OF_PERICENTER":93.6982,"MEAN_ANOMALY":266.4626,"EPHEMERIS_TYPE":0,"CLASSIFICATION_TYPE":"U","NORAD_CAT_ID":39452,"ELEMENT_SET_NO":999,"REV_AT_EPOCH":69016,"BSTAR":0.00024176739,"MEAN_MOTION_DOT":0.00012952,"MEAN_MOTION_DDOT":0},{"OBJECT_NAME":"SWARM C","OBJECT_ID":"2013-067C","EPOCH":"2026-03-05T07:53:31.193664","MEAN_MOTION":15.48632736,"ECCENTRICITY":0.00030637,"INCLINATION":87.3283,"RA_OF_ASC_NODE":93.3557,"ARG_OF_PERICENTER":93.5844,"MEAN_ANOMALY":266.5767,"EPHEMERIS_TYPE":0,"CLASSIFICATION_TYPE":"U","NORAD_CAT_ID":39453,"ELEMENT_SET_NO":999,"REV_AT_EPOCH":69012,"BSTAR":0.00023762145,"MEAN_MOTION_DOT":0.0001273,"MEAN_MOTION_DDOT":0},{"OBJECT_NAME":"BRITE-CA1 (TORONTO)","OBJECT_ID":"2014-033L","EPOCH":"2026-03-04T07:53:05.506944","MEAN_MOTION":14.72445502,"ECCENTRICITY":0.007771,"INCLINATION":97.9558,"RA_OF_ASC_NODE":194.3075,"ARG_OF_PERICENTER":252.31,"MEAN_ANOMALY":106.9613,"EPHEMERIS_TYPE":0,"CLASSIFICATION_TYPE":"U","NORAD_CAT_ID":40020,"ELEMENT_SET_NO":999,"REV_AT_EPOCH":62678,"BSTAR":0.00029920168,"MEAN_MOTION_DOT":1.935e-5,"MEAN_MOTION_DDOT":0}]
